OBJECT_NAME,OBJECT_ID,EPOCH,MEAN_MOTION,ECCENTRICITY,INCLINATION,RA_OF_ASC_NODE,ARG_OF_PERICENTER,MEAN_ANOMALY,EPHEMERIS_TYPE,CLASSIFICATION_TYPE,NORAD_CAT_ID,ELEMENT_SET_NO,REV_AT_EPOCH,BSTAR,MEAN_MOTION_DOT,MEAN_MOTION_DDOT
POLYITAN-1,2014-033AJ,2026-07-14T14:01:13.837152,15.34205321,.00079752,98.0932,224.4557,65.9941,294.2133,0,U,40042,999,65779,.33384797E-3,.10977E-3,0
TIGRISAT,2014-033AK,2026-07-14T08:00:57.568032,14.85248130,.00486985,97.7862,344.7296,347.1881,12.8092,0,U,40043,999,64965,.95872198E-4,.784E-5,0
AEROCUBE 6A,2014-033AM,2026-07-14T09:44:56.486976,14.98338309,.003637,97.7242,2.0715,283.7155,76.0019,0,U,40045,999,65069,.26300991E-3,.3113E-4,0
AEROCUBE 6B,2014-033AN,2026-07-14T10:46:13.420416,14.99794321,.00380331,97.7198,1.9598,272.7240,86.9630,0,U,40046,999,65084,.21486335E-3,.2635E-4,0
CANX-4,2014-034C,2026-07-14T15:28:05.971584,14.81310620,.00114387,98.3084,71.9612,284.8377,75.1567,0,U,40055,999,64859,.63094958E-4,.435E-5,0
CANX-5,2014-034D,2026-07-14T15:25:22.892448,14.81327975,.0011436,98.3086,72.0044,285.0734,74.9212,0,U,40056,999,63940,.63259519E-4,.437E-5,0
UKUBE-1,2014-037F,2026-07-14T12:49:26.713344,15.13944231,.00033035,98.4242,201.6884,89.0396,271.1211,0,U,40074,999,65269,.2295676E-3,.4082E-4,0
BRITE-PL2 (HEWELIUSZ),2014-049B,2026-07-14T13:17:12.783552,14.94686242,.00143969,97.9120,307.7691,24.3695,335.8202,0,U,40119,999,64553,.57098641E-4,.56E-5,0
AEROCUBE 5C,2015-058B,2026-07-14T07:49:42.510144,14.91572903,.01322819,64.7652,178.1530,52.7587,308.5506,0,U,40965,999,36970,.1636215E-3,.1764E-4,0
AEROCUBE 7,2015-058C,2026-07-14T12:17:09.870720,14.95909907,.01220119,64.7610,159.2159,51.0141,310.1765,0,U,40966,999,37004,.23038978E-3,.2819E-4,0
FOX-1A (AO-85),2015-058D,2026-07-14T10:47:31.033536,14.91085582,.01323024,64.7725,194.2515,46.0955,315.0989,0,U,40967,999,11763,.15724465E-3,.1665E-4,0
SINOD-D 1,2015-058E,2026-07-14T08:28:14.313216,14.96082878,.01209938,64.7732,173.8274,42.4784,318.5615,0,U,40968,999,12072,.2266524E-3,.2777E-4,0
SNAP-3 ALICE,2015-058G,2026-07-14T14:40:50.458368,15.67107790,.00245412,64.7491,8.6281,348.6868,11.3726,0,U,40970,999,12117,.84346083E-3,.92922E-3,0
LMRST-SAT,2015-058H,2026-07-14T09:53:14.571744,14.90700627,.01338389,64.7731,190.7587,48.1094,313.1343,0,U,40971,999,11761,.15301478E-3,.1604E-4,0
SNAP-3 EDDIE,2015-058J,2026-07-14T13:54:53.079264,15.68485561,.00254219,64.7401,359.2544,351.1847,8.8853,0,U,40972,999,12331,.89191524E-3,.104262E-2,0
PROPCUBE 3,2015-058K,2026-07-14T07:31:24.360096,14.94411538,.01257105,64.7668,167.7721,49.3408,311.8552,0,U,40973,999,11885,.19952954E-3,.2337E-4,0
BISONSAT,2015-058L,2026-07-14T03:15:38.315232,15.16915005,.00819801,64.7585,86.4661,36.3271,324.3379,0,U,40974,999,11970,.42413995E-3,.8955E-4,0
SNAP-3 JIMI,2015-058M,2026-07-14T05:07:33.956544,15.02600450,.01077872,64.7645,134.2428,44.6929,316.2812,0,U,40975,999,11828,.30025585E-3,.436E-4,0
PROPCUBE 1 (FLORA),2015-058N,2026-07-14T09:24:21.882816,14.89325455,.01324163,64.7718,210.9135,50.3966,310.8748,0,U,40976,999,12031,.1286528E-3,.1263E-4,0
SINOD-D 3,2015-058P,2026-07-14T08:23:16.531296,14.94169664,.01209767,64.7701,190.9882,47.4631,313.6620,0,U,40977,999,11881,.19838367E-3,.2279E-4,0
RAVAN,2016-067B,2026-07-14T15:09:00.218592,15.57424181,.00021543,97.9847,88.4289,219.3997,140.7101,0,U,41849,999,53196,.4900184E-3,.35918E-3,0
CELTEE 1,2016-067C,2026-07-14T14:18:20.720160,15.19937383,.00023293,98.0636,64.0325,111.0586,249.0897,0,U,41850,999,53004,.13972063E-3,.2925E-4,0
OPTICUBE 04,2016-067D,2026-07-14T14:02:13.727040,15.09770662,.00162113,98.0673,49.2962,29.8030,330.4117,0,U,41851,999,52930,.70005079E-4,.1061E-4,0
AEROCUBE 8D,2016-067E,2026-07-14T09:26:18.387168,15.24763137,.00046291,98.0647,67.6366,58.5584,301.6104,0,U,41852,999,53021,.18302081E-3,.4453E-4,0
AEROCUBE 8C,2016-067F,2026-07-14T14:39:15.433920,15.25019050,.00043329,98.0521,65.0631,343.7365,16.3731,0,U,41853,999,53024,.16881191E-3,.4132E-4,0
CORVUS BC2,2017-042X,2026-07-14T10:18:37.146240,15.06454543,.00135237,97.4090,355.7268,25.6312,334.5584,0,U,42846,999,49116,.91874492E-4,.1298E-4,0
CORVUS BC1,2017-042Y,2026-07-14T10:06:32.203584,15.06617331,.00117341,97.4119,356.5502,2.9790,357.1506,0,U,42847,999,49119,.88365851E-4,.1251E-4,0
MAKERSAT 0,2017-073D,2026-07-14T14:28:35.204736,15.32992920,.0105407,97.4584,78.3470,174.3522,185.8937,0,U,43016,999,47066,.30730004E-3,.11617E-3,0
SIRION PATHFINDER-2,2018-099B,2026-07-14T09:35:40.895232,15.14773961,.0008393,97.4240,243.8120,194.3555,165.7440,0,U,43759,999,41674,.13143864E-3,.2375E-4,0
CORVUS BC4,2018-099K,2026-07-14T13:49:04.505376,15.12699761,.00064918,97.4053,237.7554,263.5403,96.5089,0,U,43767,999,41654,.12183868E-3,.207E-4,0
